CROCUBE                 
1 62394U 24247T   26141.11596255  .00023976  00000+0  48363-3 0  9994
2 62394  44.9732  51.8723 0005581 180.8555 179.2327 15.46151390 79150
FORESAIL-1 PRIME        
1 66778U 25276DS  26141.44142204  .00003229  00000+0  16017-3 0  9994
2 66778  97.4202 215.2063 0002610 162.0335 198.0992 15.18421959 26346
KNACKSAT-2              
1 67683U 98067XZ  26141.03792952  .00031564  00000+0  42652-3 0  9991
2 67683  51.6301  70.7726 0012161  99.9810 260.2555 15.57383266 16046
