
    {
        "ARG_OF_PERICENTER": 180.8555,
        "BSTAR": 0.00048363113,
        "CLASSIFICATION_TYPE": "U",
        "ECCENTRICITY": 0.00055815,
        "ELEMENT_SET_NO": 999,
        "EPHEMERIS_TYPE": 0,
        "EPOCH": "2026-05-21T02:46:59.164320",
        "INCLINATION": 44.9732,
        "MEAN_ANOMALY": 179.2327,
        "MEAN_MOTION": 15.4615139,
        "MEAN_MOTION_DDOT": 0,
        "MEAN_MOTION_DOT": 0.00023976,
        "NORAD_CAT_ID": 62394,
        "OBJECT_ID": "2024-247T",
        "OBJECT_NAME": "CROCUBE",
        "RA_OF_ASC_NODE": 51.8723,
        "REV_AT_EPOCH": 7915
    },
    {
        "ARG_OF_PERICENTER": 162.0335,
        "BSTAR": 0.00016017458,
        "CLASSIFICATION_TYPE": "U",
        "ECCENTRICITY": 0.00026098,
        "ELEMENT_SET_NO": 999,
        "EPHEMERIS_TYPE": 0,
        "EPOCH": "2026-05-21T10:35:38.864256",
        "INCLINATION": 97.4202,
        "MEAN_ANOMALY": 198.0992,
        "MEAN_MOTION": 15.18421959,
        "MEAN_MOTION_DDOT": 0,
        "MEAN_MOTION_DOT": 3.229e-05,
        "NORAD_CAT_ID": 66778,
        "OBJECT_ID": "2025-276DS",
        "OBJECT_NAME": "FORESAIL-1 PRIME",
        "RA_OF_ASC_NODE": 215.2063,
        "REV_AT_EPOCH": 2634
    },
    {
        "ARG_OF_PERICENTER": 99.981,
        "BSTAR": 0.00042652432,
        "CLASSIFICATION_TYPE": "U",
        "ECCENTRICITY": 0.0012161,
        "ELEMENT_SET_NO": 999,
        "EPHEMERIS_TYPE": 0,
        "EPOCH": "2026-05-21T00:54:37.110528",
        "INCLINATION": 51.6301,
        "MEAN_ANOMALY": 260.2555,
        "MEAN_MOTION": 15.57383266,
        "MEAN_MOTION_DDOT": 0,
        "MEAN_MOTION_DOT": 0.00031564,
        "NORAD_CAT_ID": 67683,
        "OBJECT_ID": "1998-067XZ",
        "OBJECT_NAME": "KNACKSAT-2",
        "RA_OF_ASC_NODE": 70.7726,
        "REV_AT_EPOCH": 1604
    }